[
    {
        "Altitude(m)": 622200.0865077064,
        "Argument of Periapsis(deg)": 0.0,
        "Eccentricity": 0.0,
        "Inclination(deg)": 60.0,
        "Latitude(deg)": -52.16248111435971,
        "Longitude(deg)": 142.36066185313726,
        "Mean Anomaly(deg)": -65.45449999999998,
        "RAAN(deg)": 290.0,
        "Satellite Name": "Test1 1294",
        "Satellite Number": 1294,
        "Semi-Major Axis(m)": 6980739.136638005,
        "Time(s)": 0
    },
    {
        "Altitude(m)": 622058.2545389753,
        "Argument of Periapsis(deg)": 0.00010418945913296404,
        "Eccentricity": 0.0,
        "Inclination(deg)": 60.0,
        "Latitude(deg)": -51.79923171697302,
        "Longitude(deg)": 143.12871995358554,
        "Mean Anomaly(deg)": -64.83439385453813,
        "RAAN(deg)": 289.99957995086027,
        "Satellite Name": "Test1 1294",
        "Satellite Number": 1294,
        "Semi-Major Axis(m)": 6980739.136638005,
        "Time(s)": 10
    }
]